STARLINK-30494          
1 57970U 23151G   26068.36049035 -.00001272  00000+0 -35691-4 0  9993
2 57970  43.0027 192.4566 0001155 241.5536 118.5200 15.28417441137406
STARLINK-31316          
1 59090U 24041S   26068.82427263 -.00000822  00000+0 -20342-4 0  9998
2 59090  42.9979 263.1239 0001189 269.8888  90.1827 15.27573257114770
